{
    "week": 293,
    "satellites": [
        {
            "Name": "GSAT0218 (GALILEO 22)",
            "Line1": "1 43058U 17079D   24321.37749245 -.00000004  00000+0  00000+0 0  9990",
            "Line2": "2 43058  55.2758 237.4057 0004314 286.3609  73.6268  1.70473763 43139",
            "SatelliteNumber": "43058",
            "Classification": "U",
            "LaunchYear": "17",
            "LaunchNumber": "079",
            "PieceOfLaunch": "D",
            "EpochYear": "24",
            "EpochDay": 321.37749245,
            "FirstDerivativeMeanMotion": -4e-08,
            "SecondDerivativeMeanMotion": "00000+0",
            "BSTAR": "00000+0",
            "SetNumber": "999",
            "Inclination": 55.2758,
            "RAAN": 237.4057,
            "Eccentricity": 0.0004314,
            "ArgumentOfPerigee": 286.3609,
            "MeanAnomaly": 73.6268,
            "MeanMotion": 1.70473763,
            "RevolutionNumber": "4313"
        },
        {
            "Name": "GSAT0221 (GALILEO 25)",
            "Line1": "1 43564U 18060A   24320.10546720 -.00000082  00000+0  00000+0 0  9992",
            "Line2": "2 43564  57.2960 357.4046 0005917 271.3335  88.6618  1.70475834 39297",
            "SatelliteNumber": "43564",
            "Classification": "U",
            "LaunchYear": "18",
            "LaunchNumber": "060",
            "PieceOfLaunch": "A",
            "EpochYear": "24",
            "EpochDay": 320.1054672,
            "FirstDerivativeMeanMotion": -8.2e-07,
            "SecondDerivativeMeanMotion": "00000+0",
            "BSTAR": "00000+0",
            "SetNumber": "999",
            "Inclination": 57.296,
            "RAAN": 357.4046,
            "Eccentricity": 0.0005917,
            "ArgumentOfPerigee": 271.3335,
            "MeanAnomaly": 88.6618,
            "MeanMotion": 1.70475834,
            "RevolutionNumber": "3929"
        },
        {
            "Name": "GSAT0222 (GALILEO 26)",
            "Line1": "1 43565U 18060B   24320.91078210 -.00000085  00000+0  00000+0 0  9999",
            "Line2": "2 43565  57.3000 357.3851 0005661 249.1163 110.8844  1.70475609 39351",
            "SatelliteNumber": "43565",
            "Classification": "U",
            "LaunchYear": "18",
            "LaunchNumber": "060",
            "PieceOfLaunch": "B",
            "EpochYear": "24",
            "EpochDay": 320.9107821,
            "FirstDerivativeMeanMotion": -8.5e-07,
            "SecondDerivativeMeanMotion": "00000+0",
            "BSTAR": "00000+0",
            "SetNumber": "999",
            "Inclination": 57.3,
            "RAAN": 357.3851,
            "Eccentricity": 0.0005661,
            "ArgumentOfPerigee": 249.1163,
            "MeanAnomaly": 110.8844,
            "MeanMotion": 1.70475609,
            "RevolutionNumber": "3935"
        },
        {
            "Name": "GSAT0219 (GALILEO 23)",
            "Line1": "1 43566U 18060C   24321.13244750 -.00000086  00000+0  00000+0 0  9990",
            "Line2": "2 43566  57.2998 357.3807 0003699 277.4012  82.6176  1.70475737 39338",
            "SatelliteNumber": "43566",
            "Classification": "U",
            "LaunchYear": "18",
            "LaunchNumber": "060",
            "PieceOfLaunch": "C",
            "EpochYear": "24",
            "EpochDay": 321.1324475,
            "FirstDerivativeMeanMotion": -8.6e-07,
            "SecondDerivativeMeanMotion": "00000+0",
            "BSTAR": "00000+0",
            "SetNumber": "999",
            "Inclination": 57.2998,
            "RAAN": 357.3807,
            "Eccentricity": 0.0003699,
            "ArgumentOfPerigee": 277.4012,
            "MeanAnomaly": 82.6176,
            "MeanMotion": 1.70475737,
            "RevolutionNumber": "3933"
        },
        {
            "Name": "GSAT0220 (GALILEO 24)",
            "Line1": "1 43567U 18060D   24319.00684242 -.00000078  00000+0  00000+0 0  9999",
            "Line2": "2 43567  57.2985 357.4386 0005463 270.0843  89.9176  1.70475561 39289",
            "SatelliteNumber": "43567",
            "Classification": "U",
            "LaunchYear": "18",
            "LaunchNumber": "060",
            "PieceOfLaunch": "D",
            "EpochYear": "24",
            "EpochDay": 319.00684242,
            "FirstDerivativeMeanMotion": -7.8e-07,
            "SecondDerivativeMeanMotion": "00000+0",
            "BSTAR": "00000+0",
            "SetNumber": "999",
            "Inclination": 57.2985,
            "RAAN": 357.4386,
            "Eccentricity": 0.0005463,
            "ArgumentOfPerigee": 270.0843,
            "MeanAnomaly": 89.9176,
            "MeanMotion": 1.70475561,
            "RevolutionNumber": "3928"
        },
        {
            "Name": "GSAT0223 (GALILEO 27)",
            "Line1": "1 49809U 21116A   24318.36620497 -.00000076  00000+0  00000+0 0  9998",
            "Line2": "2 49809  57.2890 357.3494 0004347 231.7950 185.5676  1.70475662 18288",
            "SatelliteNumber": "49809",
            "Classification": "U",
            "LaunchYear": "21",
            "LaunchNumber": "116",
            "PieceOfLaunch": "A",
            "EpochYear": "24",
            "EpochDay": 318.36620497,
            "FirstDerivativeMeanMotion": -7.6e-07,
            "SecondDerivativeMeanMotion": "00000+0",
            "BSTAR": "00000+0",
            "SetNumber": "999",
            "Inclination": 57.289,
            "RAAN": 357.3494,
            "Eccentricity": 0.0004347,
            "ArgumentOfPerigee": 231.795,
            "MeanAnomaly": 185.5676,
            "MeanMotion": 1.70475662,
            "RevolutionNumber": "1828"
        },
        {
            "Name": "GSAT0224 (GALILEO 28)",
            "Line1": "1 49810U 21116B   24320.42688207 -.00000083  00000+0  00000+0 0  9991",
            "Line2": "2 49810  57.2896 357.2920 0004296 241.9645 112.5975  1.70475727 18336",
            "SatelliteNumber": "49810",
            "Classification": "U",
            "LaunchYear": "21",
            "LaunchNumber": "116",
            "PieceOfLaunch": "B",
            "EpochYear": "24",
            "EpochDay": 320.42688207,
            "FirstDerivativeMeanMotion": -8.3e-07,
            "SecondDerivativeMeanMotion": "00000+0",
            "BSTAR": "00000+0",
            "SetNumber": "999",
            "Inclination": 57.2896,
            "RAAN": 357.292,
            "Eccentricity": 0.0004296,
            "ArgumentOfPerigee": 241.9645,
            "MeanAnomaly": 112.5975,
            "MeanMotion": 1.70475727,
            "RevolutionNumber": "1833"
        },
        {
            "Name": "GSAT0225 (GALILEO 29)",
            "Line1": "1 59598U 24079A   24321.61841110  .00000038  00000+0  00000+0 0  9991",
            "Line2": "2 59598  54.7794 117.2415 0002665 162.4582 194.3621  1.70474623  3454",
            "SatelliteNumber": "59598",
            "Classification": "U",
            "LaunchYear": "24",
            "LaunchNumber": "079",
            "PieceOfLaunch": "A",
            "EpochYear": "24",
            "EpochDay": 321.6184111,
            "FirstDerivativeMeanMotion": 3.8e-07,
            "SecondDerivativeMeanMotion": "00000+0",
            "BSTAR": "00000+0",
            "SetNumber": "999",
            "Inclination": 54.7794,
            "RAAN": 117.2415,
            "Eccentricity": 0.0002665,
            "ArgumentOfPerigee": 162.4582,
            "MeanAnomaly": 194.3621,
            "MeanMotion": 1.70474623,
            "RevolutionNumber": "345"
        },
        {
            "Name": "GSAT0227 (GALILEO 30)",
            "Line1": "1 59600U 24079C   24320.63373721  .00000045  00000+0  00000+0 0  9992",
            "Line2": "2 59600  54.7752 117.2699 0003753 116.9039 243.1187  1.70474560  3502",
            "SatelliteNumber": "59600",
            "Classification": "U",
            "LaunchYear": "24",
            "LaunchNumber": "079",
            "PieceOfLaunch": "C",
            "EpochYear": "24",
            "EpochDay": 320.63373721,
            "FirstDerivativeMeanMotion": 4.5e-07,
            "SecondDerivativeMeanMotion": "00000+0",
            "BSTAR": "00000+0",
            "SetNumber": "999",
            "Inclination": 54.7752,
            "RAAN": 117.2699,
            "Eccentricity": 0.0003753,
            "ArgumentOfPerigee": 116.9039,
            "MeanAnomaly": 243.1187,
            "MeanMotion": 1.7047456,
            "RevolutionNumber": "350"
        },
        {
            "Name": "GSAT0232 (GALILEO 32)",
            "Line1": "1 61182U 24167A   24321.21686440 -.00000004  00000+0  00000+0 0  9994",
            "Line2": "2 61182  55.3884 237.1378 0015743 276.0571  83.7985  1.73178105  1028",
            "SatelliteNumber": "61182",
            "Classification": "U",
            "LaunchYear": "24",
            "LaunchNumber": "167",
            "PieceOfLaunch": "A",
            "EpochYear": "24",
            "EpochDay": 321.2168644,
            "FirstDerivativeMeanMotion": -4e-08,
            "SecondDerivativeMeanMotion": "00000+0",
            "BSTAR": "00000+0",
            "SetNumber": "999",
            "Inclination": 55.3884,
            "RAAN": 237.1378,
            "Eccentricity": 0.0015743,
            "ArgumentOfPerigee": 276.0571,
            "MeanAnomaly": 83.7985,
            "MeanMotion": 1.73178105,
            "RevolutionNumber": "102"
        }
    ]
}